start=new Date('%Y-%m-57T00:00:00.000Z').valueOf();
sats=[{"RA_OF_ASC_NODE":"289.3697","PERIOD":"95.593","SEMIMAJOR_AXIS":"6925.389","REF_FRAME":"TEME","ECCENTRICITY":"0.00001600","CENTER_NAME":"EARTH","MEAN_MOTION":"15.06386749","TIME_SYSTEM":"UTC","CLASSIFICATION_TYPE":"U","GP_ID":"183185765","SITE":"AFETR","OBJECT_TYPE":"PAYLOAD","MEAN_MOTION_DDOT":"0.0000000000000","COUNTRY_CODE":"US","TLE_LINE1":"1 47386U 21005AP  21233.41295661  .00000243  00000-0  35208-4 0  9992","EPOCH":"2021-08-21T09:54:39.451104","FILE":"3100831","APOAPSIS":"547.365","OBJECT_ID":"2021-005AP","PERIAPSIS":"547.143","MEAN_ANOMALY":"281.1587","EPHEMERIS_TYPE":"0","TLE_LINE2":"2 47386  53.0554 289.3697 0000160  78.9420 281.1587 15.06386749 33077","BSTAR":"0.00003520800000","OBJECT_NAME":"STARLINK-2106","MEAN_ELEMENT_THEORY":"SGP4","ARG_OF_PERICENTER":"78.9420","LAUNCH_DATE":"2021-01-20","DECAY_DATE":null,"REV_AT_EPOCH":"3307","ELEMENT_SET_NO":"999","NORAD_CAT_ID":"47386","INCLINATION":"53.0554","MEAN_MOTION_DOT":"0.00000243","RCS_SIZE":"LARGE"},{"MEAN_ELEMENT_THEORY":"SGP4","BSTAR":"-0.00002932000000","OBJECT_NAME":"STARLINK-2108","ARG_OF_PERICENTER":"104.1868","LAUNCH_DATE":"2021-01-20","DECAY_DATE":null,"REV_AT_EPOCH":"3266","INCLINATION":"53.0562","NORAD_CAT_ID":"47387","ELEMENT_SET_NO":"999","MEAN_MOTION_DOT":"-0.00000718","RCS_SIZE":"LARGE","RA_OF_ASC_NODE":"318.8430","PERIOD":"95.592","REF_FRAME":"TEME","SEMIMAJOR_AXIS":"6925.361","CLASSIFICATION_TYPE":"U","TIME_SYSTEM":"UTC","MEAN_MOTION":"15.06396103","ECCENTRICITY":"0.00009550","CENTER_NAME":"EARTH","GP_ID":"183187016","MEAN_MOTION_DDOT":"0.0000000000000","SITE":"AFETR","OBJECT_TYPE":"PAYLOAD","EPOCH":"2021-08-21T12:45:49.066560","TLE_LINE1":"1 47387U 21005AQ  21233.53181790 -.00000718  00000-0 -29320-4 0  9990","COUNTRY_CODE":"US","PERIAPSIS":"546.564","OBJECT_ID":"2021-005AQ","APOAPSIS":"547.887","FILE":"3100831","TLE_LINE2":"2 47387  53.0562 318.8430 0000955 104.1868 255.9227 15.06396103 32669","EPHEMERIS_TYPE":"0","MEAN_ANOMALY":"255.9227"},{"GP_ID":"183186767","CLASSIFICATION_TYPE":"U","CENTER_NAME":"EARTH","ECCENTRICITY":"0.00009900","TIME_SYSTEM":"UTC","MEAN_MOTION":"15.06390448","SEMIMAJOR_AXIS":"6925.378","REF_FRAME":"TEME","PERIOD":"95.593","RA_OF_ASC_NODE":"318.7774","EPHEMERIS_TYPE":"0","TLE_LINE2":"2 47388  53.0561 318.7774 0000990 113.3939 246.7155 15.06390448 32663","MEAN_ANOMALY":"246.7155","PERIAPSIS":"546.557","APOAPSIS":"547.928","FILE":"3100831","OBJECT_ID":"2021-005AR","EPOCH":"2021-08-21T13:07:03.207360","TLE_LINE1":"1 47388U 21005AR  21233.54656490 -.00000815  00000-0 -35854-4 0  9993","COUNTRY_CODE":"US","MEAN_MOTION_DDOT":"0.0000000000000","SITE":"AFETR","OBJECT_TYPE":"PAYLOAD","DECAY_DATE":null,"LAUNCH_DATE":"2021-01-20","ARG_OF_PERICENTER":"113.3939","MEAN_ELEMENT_THEORY":"SGP4","OBJECT_NAME":"STARLINK-2109","BSTAR":"-0.00003585400000","MEAN_MOTION_DOT":"-0.00000815","RCS_SIZE":"LARGE","NORAD_CAT_ID":"47388","INCLINATION":"53.0561","ELEMENT_SET_NO":"999","REV_AT_EPOCH":"3266"},{"REV_AT_EPOCH":"3293","RCS_SIZE":"LARGE","MEAN_MOTION_DOT":"0.00000534","INCLINATION":"53.0487","NORAD_CAT_ID":"47389","ELEMENT_SET_NO":"999","ARG_OF_PERICENTER":"95.1365","MEAN_ELEMENT_THEORY":"SGP4","OBJECT_NAME":"STARLINK-2110","BSTAR":"0.00005470800000","DECAY_DATE":null,"LAUNCH_DATE":"2021-01-20","EPOCH":"2021-08-21T11:02:18.011616","TLE_LINE1":"1 47389U 21005AS  21233.45993069  .00000534  00000-0  54708-4 0  9995","COUNTRY_CODE":"US","MEAN_MOTION_DDOT":"0.0000000000000","SITE":"AFETR","OBJECT_TYPE":"PAYLOAD","TLE_LINE2":"2 47389  53.0487 299.1764 0000800  95.1365 264.9715 15.06402074 32935","EPHEMERIS_TYPE":"0","MEAN_ANOMALY":"264.9715","PERIAPSIS":"546.653","OBJECT_ID":"2021-005AS","FILE":"3100831","APOAPSIS":"547.761","REF_FRAME":"TEME","SEMIMAJOR_AXIS":"6925.342","RA_OF_ASC_NODE":"299.1764","PERIOD":"95.592","GP_ID":"183185515","CLASSIFICATION_TYPE":"U","TIME_SYSTEM":"UTC","MEAN_MOTION":"15.06402074","CENTER_NAME":"EARTH","ECCENTRICITY":"0.00008000"},{"ARG_OF_PERICENTER":"86.6798","OBJECT_NAME":"STARLINK-2111","BSTAR":"0.00008181900000","MEAN_ELEMENT_THEORY":"SGP4","DECAY_DATE":null,"LAUNCH_DATE":"2021-01-20","REV_AT_EPOCH":"3266","RCS_SIZE":"LARGE","MEAN_MOTION_DOT":"0.00000938","ELEMENT_SET_NO":"999","INCLINATION":"53.0557","NORAD_CAT_ID":"47390","REF_FRAME":"TEME","SEMIMAJOR_AXIS":"6925.347","PERIOD":"95.592","RA_OF_ASC_NODE":"318.8841","GP_ID":"183186265","MEAN_MOTION":"15.06400477","TIME_SYSTEM":"UTC","ECCENTRICITY":"0.00009010","CENTER_NAME":"EARTH","CLASSIFICATION_TYPE":"U","COUNTRY_CODE":"US","EPOCH":"2021-08-21T12:29:53.428128","TLE_LINE1":"1 47390U 21005AT  21233.52075727  .00000938  00000-0  81819-4 0  9998","OBJECT_TYPE":"PAYLOAD","SITE":"AFETR","MEAN_MOTION_DDOT":"0.0000000000000","MEAN_ANOMALY":"273.4294","TLE_LINE2":"2 47390  53.0557 318.8841 0000901  86.6798 273.4294 15.06400477 32669","EPHEMERIS_TYPE":"0","OBJECT_ID":"2021-005AT","APOAPSIS":"547.836","FILE":"3100831","PERIAPSIS":"546.588"},{"ECCENTRICITY":"0.00005210","CENTER_NAME":"EARTH","MEAN_MOTION":"15.06392323","TIME_SYSTEM":"UTC","CLASSIFICATION_TYPE":"U","GP_ID":"183186517","PERIOD":"95.593","RA_OF_ASC_NODE":"288.8530","SEMIMAJOR_AXIS":"6925.372","REF_FRAME":"TEME","APOAPSIS":"547.598","FILE":"3100831","OBJECT_ID":"2021-005AU","PERIAPSIS":"546.876","MEAN_ANOMALY":"201.2125","EPHEMERIS_TYPE":"0","TLE_LINE2":"2 47391  53.0503 288.8530 0000521 158.8886 201.2125 15.06392323 33089","OBJECT_TYPE":"PAYLOAD","SITE":"AFETR","MEAN_MOTION_DDOT":"0.0000000000000","COUNTRY_CODE":"US","TLE_LINE1":"1 47391U 21005AU  21233.52995653 -.00000852  00000-0 -38315-4 0  9998","EPOCH":"2021-08-21T12:43:08.244192","LAUNCH_DATE":"2021-01-20","DECAY_DATE":null,"OBJECT_NAME":"STARLINK-2112","BSTAR":"-0.00003831500000","MEAN_ELEMENT_THEORY":"SGP4","ARG_OF_PERICENTER":"158.8886","ELEMENT_SET_NO":"999","NORAD_CAT_ID":"47391","INCLINATION":"53.0503","RCS_SIZE":"LARGE","MEAN_MOTION_DOT":"-0.00000852","REV_AT_EPOCH":"3308"},{"REV_AT_EPOCH":"3308","RCS_SIZE":"LARGE","MEAN_MOTION_DOT":"0.00000722","ELEMENT_SET_NO":"999","INCLINATION":"53.0504","NORAD_CAT_ID":"47392","ARG_OF_PERICENTER":"127.9636","BSTAR":"0.00006730600000","OBJECT_NAME":"STARLINK-2113","MEAN_ELEMENT_THEORY":"SGP4","DECAY_DATE":null,"LAUNCH_DATE":"2021-01-20","COUNTRY_CODE":"US","TLE_LINE1":"1 47392U 21005AV  21233.53089288  .00000722  00000-0  67306-4 0  9994","EPOCH":"2021-08-21T12:44:29.144832","SITE":"AFETR","OBJECT_TYPE":"PAYLOAD","MEAN_MOTION_DDOT":"0.0000000000000","MEAN_ANOMALY":"232.1378","TLE_LINE2":"2 47392  53.0504 288.8549 0000279 127.9636 232.1378 15.06399322 33080","EPHEMERIS_TYPE":"0","OBJECT_ID":"2021-005AV","FILE":"3100831","APOAPSIS":"547.409","PERIAPSIS":"547.022","REF_FRAME":"TEME","SEMIMAJOR_AXIS":"6925.351","PERIOD":"95.592","RA_OF_ASC_NODE":"288.8549","GP_ID":"183187267","MEAN_MOTION":"15.06399322","TIME_SYSTEM":"UTC","ECCENTRICITY":"0.00002790","CENTER_NAME":"EARTH","CLASSIFICATION_TYPE":"U"},{"ARG_OF_PERICENTER":"62.8465","MEAN_ELEMENT_THEORY":"SGP4","OBJECT_NAME":"STARLINK-2114","BSTAR":"0.00003903000000","DECAY_DATE":null,"LAUNCH_DATE":"2021-01-20","REV_AT_EPOCH":"3342","RCS_SIZE":"LARGE","MEAN_MOTION_DOT":"0.00000300","INCLINATION":"53.0297","NORAD_CAT_ID":"47393","ELEMENT_SET_NO":"999","REF_FRAME":"TEME","SEMIMAJOR_AXIS":"6925.377","RA_OF_ASC_NODE":"264.2973","PERIOD":"95.593","GP_ID":"183186015","CLASSIFICATION_TYPE":"U","MEAN_MOTION":"15.06390826","TIME_SYSTEM":"UTC","CENTER_NAME":"EARTH","ECCENTRICITY":"0.00013090","TLE_LINE1":"1 47393U 21005AW  21233.45669884  .00000300  00000-0  39030-4 0  9997","EPOCH":"2021-08-21T10:57:38.779776","COUNTRY_CODE":"US","MEAN_MOTION_DDOT":"0.0000000000000","OBJECT_TYPE":"PAYLOAD","SITE":"AFETR","TLE_LINE2":"2 47393  53.0297 264.2973 0001309  62.8465 297.2658 15.06390826 33422","EPHEMERIS_TYPE":"0","MEAN_ANOMALY":"297.2658","PERIAPSIS":"546.335","OBJECT_ID":"2021-005AW","APOAPSIS":"548.148","FILE":"3100831"},{"SEMIMAJOR_AXIS":"6925.352","REF_FRAME":"TEME","RA_OF_ASC_NODE":"283.8100","PERIOD":"95.592","GP_ID":"183185766","CLASSIFICATION_TYPE":"U","CENTER_NAME":"EARTH","ECCENTRICITY":"0.00001940","MEAN_MOTION":"15.06398892","TIME_SYSTEM":"UTC","EPOCH":"2021-08-21T12:57:03.892032","TLE_LINE1":"1 47394U 21005AX  21233.53962838 -.00000094  00000-0  12541-4 0  9991","COUNTRY_CODE":"US","MEAN_MOTION_DDOT":"0.0000000000000","OBJECT_TYPE":"PAYLOAD","SITE":"AFETR","EPHEMERIS_TYPE":"0","TLE_LINE2":"2 47394  53.0570 283.8100 0000194 188.7815 171.3171 15.06398892 33168","MEAN_ANOMALY":"171.3171","PERIAPSIS":"547.083","FILE":"3100831","APOAPSIS":"547.351","OBJECT_ID":"2021-005AX","ARG_OF_PERICENTER":"188.7815","MEAN_ELEMENT_THEORY":"SGP4","OBJECT_NAME":"STARLINK-2115","BSTAR":"0.00001254100000","DECAY_DATE":null,"LAUNCH_DATE":"2021-01-20","REV_AT_EPOCH":"3316","RCS_SIZE":"LARGE","MEAN_MOTION_DOT":"-0.00000094","NORAD_CAT_ID":"47394","INCLINATION":"53.0570","ELEMENT_SET_NO":"999"},{"OBJECT_NAME":"STARLINK-2117","BSTAR":"0.00005976700000","MEAN_ELEMENT_THEORY":"SGP4","ARG_OF_PERICENTER":"98.8751","LAUNCH_DATE":"2021-01-20","DECAY_DATE":null,"REV_AT_EPOCH":"3322","ELEMENT_SET_NO":"999","INCLINATION":"53.0530","NORAD_CAT_ID":"47395","RCS_SIZE":"LARGE","MEAN_MOTION_DOT":"0.00000610","RA_OF_ASC_NODE":"278.9360","PERIOD":"95.592","REF_FRAME":"TEME","SEMIMAJOR_AXIS":"6925.330","TIME_SYSTEM":"UTC","MEAN_MOTION":"15.06406077","ECCENTRICITY":"0.00001270","CENTER_NAME":"EARTH","CLASSIFICATION_TYPE":"U","GP_ID":"183187017","OBJECT_TYPE":"PAYLOAD","SITE":"AFETR","MEAN_MOTION_DDOT":"0.0000000000000","COUNTRY_CODE":"US","TLE_LINE1":"1 47395U 21005AY  21233.50969755  .00000610  00000-0  59767-4 0  9998","EPOCH":"2021-08-21T12:13:57.868320","OBJECT_ID":"2021-005AY","FILE":"3100831","APOAPSIS":"547.283","PERIAPSIS":"547.107","MEAN_ANOMALY":"261.2253","TLE_LINE2":"2 47395  53.0530 278.9360 0000127  98.8751 261.2253 15.06406077 33226","EPHEMERIS_TYPE":"0"}];
